#aV2010  3 18  0  0   .00000000      96 DD+AD WGS84 FIT  NGA
## 1575 345600.00000000   900.00000000 55273  .0000000000000
+   31     1  2  3  4  5  6  7  8  9 10 11 12 13 14 15 16 17
+         18 19 20 21 22 23 24 26 27 28 29 30 31 32  0  0  0
+          0  0  0  0  0  0  0  0  0  0  0  0  0  0  0  0  0
+          0  0  0  0  0  0  0  0  0  0  0  0  0  0  0  0  0
+          0  0  0  0  0  0  0  0  0  0  0  0  0  0  0  0  0
++         0  0  0  0  0  0  0  0  0  0  0  0  0  0  0  0  0
++         0  0  0  0  0  0  0  0  0  0  0  0  0  0  0  0  0
++         0  0  0  0  0  0  0  0  0  0  0  0  0  0  0  0  0
++         0  0  0  0  0  0  0  0  0  0  0  0  0  0  0  0  0
++         0  0  0  0  0  0  0  0  0  0  0  0  0  0  0  0  0
%c cc cc ccc ccc cccc cccc cccc cccc ccccc ccccc ccccc ccccc
%c cc cc ccc ccc cccc cccc cccc cccc ccccc ccccc ccccc ccccc
%f  0.0000000  0.000000000  0.00000000000  0.000000000000000
%f  0.0000000  0.000000000  0.00000000000  0.000000000000000
%i    0    0    0    0      0      0      0      0         0
%i    0    0    0    0      0      0      0      0         0
/*      NGA, ST. LOUIS,MO.                                  
/*   EPHEMERIS COMPUTED FROM  3 DAYS OF DATA                
/* CCCCCCCCCCCCCCCCCCCCCCCCCCCCCCCCCCCCCCCCCCCCCCCCCCCCCCCCC
/* CCCCCCCCCCCCCCCCCCCCCCCCCCCCCCCCCCCCCCCCCCCCCCCCCCCCCCCCC
*  2010  3 18 13 30   .00000000                                                 
P  1 -16855.473886  -5074.850967  19836.406943    -99.847887                    
V  1  -8379.094755 -23956.117152 -13040.549010      -.040431                    
P  2   6571.772605 -14625.608277  21073.584711    237.539938                    
V  2  26651.832021   4432.678449  -5670.900281       .038679                    
P  3  -7811.099217  24014.507632  -7996.233521    529.781799                    
V  3  -8412.026633   6354.275074  28921.825147       .052710                    
P  4  21376.838138  -7175.200928  14144.932114     39.525454                    
V  4  17581.572589   5154.735098 -23312.632538       .088131                    
P  5    -45.930860 -23505.653712  12262.018884     -3.358433                    
V  5   8031.647733  13642.335365  26218.585737       .011563                    
P  6 -12496.378188  22905.296941  -4400.693135    686.314873                    
V  6  -6424.895370   2585.422687  30571.421059      -.075151                    
P  7  25463.616111   6715.371707   4058.708267      1.514730                    
V  7  -5428.109593   1514.977579  31326.594210      -.004781                    
P  8  25467.776043      3.445117  -8457.714788      4.190310                    
V  8  10010.322965   3515.968465  29699.268487       .003962                    
P  9 -10665.021790 -14795.704294 -19985.401089    112.217710                    
V  9  23811.104616   2043.596627 -14679.825252       .022933                    
P 10   6327.662604 -18686.907197  17428.090526    -38.139568                    
V 10   9695.709837  20571.952198  18686.878304      -.010174                    
P 11  16397.508228  12602.555242 -17102.593135    -51.292839                    
V 11 -21106.400776   4296.546554 -16964.682919      -.021862                    
P 12 -11997.564297 -23430.969060   4150.168733   -137.293275                    
V 12    364.574633  -5676.583416 -31276.777649       .045771                    
P 13  15285.452306   3797.798949  21253.188578    305.978724                    
V 13 -17984.469100  20432.178730   9210.312714      -.002429                    
P 14 -20531.068879  13142.350858 -10260.666202     23.266789                    
V 14   7302.284283 -11199.446017 -28694.604101       .040916                    
P 15   2465.744791 -21281.320604 -15608.443194   -296.924420                    
V 15  13894.164372 -14431.367544  21957.614907       .039695                    
P 16  -5281.494870  19607.907561  17023.203786    -52.354344                    
V 16  -8975.801757 -19725.342972  20254.389621      -.039405                    
P 17  20386.179721 -13523.792163  -9976.781584    137.890876                    
V 17  -6178.295438  11620.144052 -28312.409665       .029085                    
P 18 -17270.301379  -9955.504693 -17468.785351     55.986364                    
V 18  -5977.419809 -21904.804932  17752.540187       .025423                    
P 19  -2666.226955  20203.674642 -16837.573752    -22.216821                    
V 19 -16197.742837  14392.364043  20083.103485      -.024263                    
P 20  14387.329362  21313.117219   6624.512113     59.313936                    
V 20    295.206635   9232.060873 -29665.065172      -.006901                    
P 21 -26544.640222  -4391.638693      9.969798    -47.500834                    
V 21    161.217600  -3157.841247  30726.801497      -.025223                    
P 22 -15202.787121   4013.787198 -21249.840317    176.608421                    
V 22  -9130.455393 -25888.826038   1547.766498      -.007076                    
P 23   8663.223762  12809.231119  21530.365437    377.017075                    
V 23 -17732.986738  20925.310039  -5605.392493      -.011201                    
P 24 -25583.079626  -6463.007545   1716.255045    271.512475                    
V 24   2721.131135  -2873.676907  31561.818441       .031747                    
P 26 -15824.801112  -3640.390535 -21632.886941    -29.234646                    
V 26  17349.801067 -19448.992116  -9228.131538      -.041099                    
P 27  -8863.677597 -14314.546124 -19891.174337    135.190703                    
V 27  26691.930584   1582.884373 -12481.021901       .033219                    
P 28  15279.952802   -606.023046 -21276.669861    -20.296627                    
V 28   9024.111506  26591.490801   5314.875591       .006869                    
P 29 -14538.832285  -6070.292033  21473.309227    105.952481                    
V 29  17115.831983 -20951.695566   5726.260685       .027837                    
P 30 -16794.058156 -16111.575209  12463.084999    225.631490                    
V 30  -4354.270899 -16051.378192 -25760.956549       .033758                    
P 31 -19259.725536   8389.436322  16568.872130    -46.803133                    
V 31 -20090.747366  -4457.408778 -21204.454770       .018348                    
P 32   6873.614697  25805.408618  -1045.163199     71.690096                    
V 32  -2971.157098   -926.874563 -31478.261098      -.085832                    
EOF
